      2.10          N: GNSS NAV DATA                        RINEX VERSION / TYPE
fic2rin                                 06/18/2019 00:20:25 PGM / RUN BY / DATE
                                                            END OF HEADER
 3 19  6 17 18  0  0.0 1.851939596236e-04-1.364242052659e-12 0.000000000000e+00
    4.700000000000e+01 5.281250000000e+00 4.494472927124e-09-7.148640480427e-02
    2.123415470123e-07 2.239026245661e-03 8.627772331238e-06 5.153766450882e+03
    1.512000000000e+05 3.539025783539e-08-2.312337616429e+00 1.303851604462e-08
    9.630037737726e-01 2.119062500000e+02 6.047046928348e-01-7.878899616366e-09
    4.525188492264e-10 1.000000000000e+00 2.058000000000e+03 0.000000000000e+00
    2.400000000000e+00 0.000000000000e+00 1.862645149231e-09 4.700000000000e+01
    1.440000000000e+05 4.000000000000e+00
 6 19  6 17 18  0  0.0 1.751976087689e-04-1.068656274583e-11 0.000000000000e+00
    5.900000000000e+01-1.165937500000e+02 3.911591504916e-09 1.093552979808e+00
   -6.195157766342e-06 1.487240311690e-03 9.275972843170e-06 5.153606983185e+03
    1.512000000000e+05 1.303851604462e-08 2.920863661947e+00-1.676380634308e-08
    9.759530667169e-01 2.083750000000e+02-1.073145690997e+00-7.673891076937e-09
   -1.553636143753e-10 1.000000000000e+00 2.058000000000e+03 0.000000000000e+00
    2.400000000000e+00 0.000000000000e+00 4.190951585770e-09 5.900000000000e+01
    1.440000000000e+05 4.000000000000e+00
22 19  6 17 18  0  0.0-7.184385322034e-04-5.684341886081e-12 0.000000000000e+00
    1.700000000000e+01 6.562500000000e-01 5.220931758478e-09 2.222305183245e+00
    2.048909664154e-08 7.201666361652e-03 8.683651685715e-06 5.153778205872e+03
    1.512000000000e+05 1.303851604462e-07-2.386197599965e+00-2.607703208923e-08
    9.275894558355e-01 1.896562500000e+02-1.329924299085e+00-8.083908155794e-09
    4.221604418198e-10 1.000000000000e+00 2.058000000000e+03 0.000000000000e+00
    2.400000000000e+00 0.000000000000e+00-1.816079020500e-08 1.700000000000e+01
    1.440000000000e+05 4.000000000000e+00
27 19  6 17 18  0  0.0-1.604896970093e-04-1.011812855722e-11 0.000000000000e+00
    1.700000000000e+01-4.237500000000e+01 4.452685472223e-09 3.037924507281e+00
   -2.278015017509e-06 7.147965603508e-03 1.993030309677e-07 5.153645414352e+03
    1.512000000000e+05-1.266598701477e-07 1.873638905838e+00-4.842877388000e-08
    9.783647998153e-01 3.866875000000e+02 5.073419077755e-01-8.211770624636e-09
   -1.153619481453e-10 1.000000000000e+00 2.058000000000e+03 0.000000000000e+00
    2.400000000000e+00 0.000000000000e+00 1.396983861923e-09 1.700000000000e+01
    1.440000000000e+05 4.000000000000e+00
30 19  6 17 18  0  0.0-1.257574185729e-04-7.275957614183e-12 0.000000000000e+00
    1.000000000000e+01 3.821875000000e+01 4.647336437359e-09 2.878819419756e-01
    2.048909664154e-06 4.084519925527e-03 1.061893999577e-05 5.153796461105e+03
    1.512000000000e+05 9.499490261078e-08-1.762240627253e-01 6.519258022308e-08
    9.411530178409e-01 1.645312500000e+02-2.957435926357e+00-7.996047353182e-09
   -3.046555472693e-10 1.000000000000e+00 2.058000000000e+03 0.000000000000e+00
    2.400000000000e+00 0.000000000000e+00 3.725290298462e-09 1.000000000000e+01
    1.440000000000e+05 4.000000000000e+00
32 19  6 17 18  0  0.0-3.956165164709e-05 1.602984411875e-11 0.000000000000e+00
    1.700000000000e+01-1.140625000000e+01 4.819486465242e-09-2.570583344097e+00
   -5.196779966354e-07 3.136477782391e-03 5.293637514114e-06 5.153586027145e+03
    1.512000000000e+05-3.352761268616e-08-1.273082467898e+00 5.587935447693e-09
    9.562733368057e-01 2.750937500000e+02-2.487149572609e+00-8.015333870829e-09
   -1.575065607805e-10 1.000000000000e+00 2.058000000000e+03 0.000000000000e+00
    2.400000000000e+00 0.000000000000e+00 4.656612873077e-10 1.700000000000e+01
    1.440000000000e+05 4.000000000000e+00
16 19  6 17 18  0  0.0-4.887254908681e-05-3.069544618484e-12 0.000000000000e+00
    6.600000000000e+01 1.391250000000e+02 4.050168705784e-09-2.319386104952e+00
    6.858259439468e-06 1.077132567298e-02 5.029141902924e-06 5.153595506668e+03
    1.512000000000e+05 1.043081283569e-07 9.148584097878e-01-2.048909664154e-07
    9.829401594945e-01 2.946875000000e+02 5.817902111318e-01-7.882828351442e-09
    4.703767359362e-10 1.000000000000e+00 2.058000000000e+03 0.000000000000e+00
    3.400000000000e+00 0.000000000000e+00-1.071020960808e-08 6.600000000000e+01
    1.440000000000e+05 4.000000000000e+00
25 19  6 17 18  0  0.0-7.664947770536e-04-3.183231456205e-12 0.000000000000e+00
    8.300000000000e+01 1.412500000000e+02 4.336966366343e-09-8.290308478910e-01
    7.562339305878e-06 8.421799517237e-03 5.129724740982e-06 5.153706832886e+03
    1.512000000000e+05 8.381903171539e-08 8.313549258639e-01 1.210719347000e-07
    9.700883861323e-01 2.894687500000e+02 9.031467396869e-01-8.169626012001e-09
    3.625151002090e-10 1.000000000000e+00 2.058000000000e+03 0.000000000000e+00
    2.400000000000e+00 0.000000000000e+00 6.053596735001e-09 8.300000000000e+01
    1.440000000000e+05 4.000000000000e+00
23 19  6 17 18  0  0.0-1.813392154872e-04 1.705302565824e-12 0.000000000000e+00
    6.500000000000e+01-1.090625000000e+01 5.297006355862e-09 1.689247071578e+00
   -7.357448339462e-07 1.330533507280e-02 5.302950739861e-06 5.153557954788e+03
    1.512000000000e+05-2.905726432800e-07-1.285206053305e+00-8.568167686462e-08
    9.428281950930e-01 2.729062500000e+02-2.248214362124e+00-8.391778122671e-09
   -2.571535686212e-10 1.000000000000e+00 2.058000000000e+03 0.000000000000e+00
    2.400000000000e+00 0.000000000000e+00-2.048909664154e-08 6.500000000000e+01
    1.440000000000e+05 4.000000000000e+00
13 19  6 17 18  0  0.0-5.860673263669e-05 1.818989403546e-12 0.000000000000e+00
    8.300000000000e+01-1.446875000000e+01 4.553046795532e-09 2.085258376821e+00
   -7.487833499908e-07 3.529338748194e-03 5.742534995079e-06 5.153656761169e+03
    1.512000000000e+05 4.097819328308e-08-1.142289886422e+00-5.960464477539e-08
    9.675208932202e-01 2.724375000000e+02 1.271629354295e+00-7.947473901331e-09
   -2.932264997750e-10 1.000000000000e+00 2.058000000000e+03 0.000000000000e+00
    3.400000000000e+00 0.000000000000e+00-1.117587089539e-08 8.300000000000e+01
    1.440000000000e+05 4.000000000000e+00
14 19  6 17 18  0  0.0-7.564388215542e-05 1.705302565824e-12 0.000000000000e+00
    4.800000000000e+01-1.478125000000e+01 4.654479592043e-09 2.816242848756e+00
   -7.636845111847e-07 1.072254055180e-02 5.476176738739e-06 5.153701864243e+03
    1.512000000000e+05 8.940696716309e-08-1.186852934149e+00-5.960464477539e-08
    9.600673972893e-01 2.713437500000e+02-1.935957532196e+00-7.808539542729e-09
   -2.646538810393e-10 1.000000000000e+00 2.058000000000e+03 0.000000000000e+00
    2.400000000000e+00 0.000000000000e+00-9.778887033463e-09 4.800000000000e+01
    1.440000000000e+05 4.000000000000e+00
19 19  6 17 18  0  0.0-3.053839318454e-04 4.774847184308e-12 0.000000000000e+00
    4.300000000000e+01-6.093750000000e+01 4.393040130612e-09-4.960673897808e-01
   -3.080815076828e-06 9.651200613007e-03 1.659616827965e-06 5.153636829376e+03
    1.512000000000e+05-1.005828380585e-07 1.976203695925e+00 5.587935447693e-09
    9.818263770553e-01 3.601562500000e+02 1.427750653626e+00-8.371777289556e-09
   -1.632210845276e-10 1.000000000000e+00 2.058000000000e+03 0.000000000000e+00
    2.400000000000e+00 0.000000000000e+00-1.536682248116e-08 4.300000000000e+01
    1.440000000000e+05 4.000000000000e+00
10 19  6 17 18  0  0.0 1.304363831878e-05-1.193711796077e-11 0.000000000000e+00
    4.400000000000e+01 3.937500000000e+00 4.387682764599e-09-1.171014794929e+00
    1.154839992523e-07 4.607243579812e-03 9.194016456604e-06 5.153660173416e+03
    1.512000000000e+05 1.471489667892e-07-2.315558154509e+00-7.636845111847e-08
    9.630236548293e-01 2.065000000000e+02-2.696698666335e+00-7.756037355802e-09
    4.943063041274e-10 1.000000000000e+00 2.058000000000e+03 0.000000000000e+00
    2.400000000000e+00 0.000000000000e+00 1.862645149231e-09 4.400000000000e+01
    1.440000000000e+05 4.000000000000e+00
21 19  6 17 18  0  0.0-1.713763922453e-04 7.162270776462e-12 0.000000000000e+00
    7.800000000000e+01-1.232500000000e+02 4.690552523197e-09-9.538229373196e-01
   -6.424263119698e-06 2.453560929280e-02 9.600073099136e-06 5.153727788925e+03
    1.512000000000e+05-4.414469003677e-07 2.864328786083e+00 7.823109626770e-08
    9.491457951150e-01 1.907500000000e+02-1.436130739924e+00-8.516069014171e-09
   -7.750322832055e-11 1.000000000000e+00 2.058000000000e+03 0.000000000000e+00
    2.400000000000e+00 0.000000000000e+00-1.024454832077e-08 7.800000000000e+01
    1.440000000000e+05 4.000000000000e+00
31 19  6 17 18  0  0.0 3.043236210942e-05-2.614797267597e-12 0.000000000000e+00
    8.600000000000e+01 4.393750000000e+01 4.243033882249e-09-6.619744246347e-02
    2.436339855194e-06 9.218393126503e-03 1.112930476665e-05 5.153635780334e+03
    1.512000000000e+05 1.154839992523e-07-1.899433918590e-01-5.587935447693e-08
    9.602454622150e-01 1.618437500000e+02 6.818659704546e-03-7.871042146213e-09
   -3.771585673111e-10 1.000000000000e+00 2.058000000000e+03 0.000000000000e+00
    2.400000000000e+00 0.000000000000e+00-1.350417733192e-08 8.600000000000e+01
    1.440000000000e+05 4.000000000000e+00
17 19  6 17 18  0  0.0 7.336447015405e-05 6.366462912410e-12 0.000000000000e+00
    6.400000000000e+01-5.771875000000e+01 4.285178494885e-09 2.973614565611e+00
   -2.894550561905e-06 1.284430071246e-02 6.910413503647e-07 5.153757503510e+03
    1.512000000000e+05 2.458691596985e-07 1.929968246101e+00-1.825392246246e-07
    9.839457986406e-01 3.756562500000e+02-1.712211735760e+00-8.009619347081e-09
   -1.985797002130e-10 1.000000000000e+00 2.058000000000e+03 0.000000000000e+00
    2.400000000000e+00 0.000000000000e+00-1.117587089539e-08 6.400000000000e+01
    1.440000000000e+05 4.000000000000e+00
